[{"OBJECT_NAME":"STARLINK-34809","OBJECT_ID":"2025-165P","EPOCH":"2026-03-09T17:17:32.677440","MEAN_MOTION":15.05641231,"ECCENTRICITY":0.00014451,"INCLINATION":97.6018,"RA_OF_ASC_NODE":147.2388,"ARG_OF_PERICENTER":90.5075,"MEAN_ANOMALY":269.6317,"EPHEMERIS_TYPE":0,"CLASSIFICATION_TYPE":"U","NORAD_CAT_ID":65069,"ELEMENT_SET_NO":999,"REV_AT_EPOCH":3479,"BSTAR":0.00029193713,"MEAN_MOTION_DOT":4.153e-5,"MEAN_MOTION_DDOT":0},{"OBJECT_NAME":"CZ-2D DEB","OBJECT_ID":"2017-060C","EPOCH":"2026-03-09T12:36:22.356864","MEAN_MOTION":15.07716497,"ECCENTRICITY":0.0018685,"INCLINATION":98.2453,"RA_OF_ASC_NODE":267.9231,"ARG_OF_PERICENTER":71.2095,"MEAN_ANOMALY":289.1156,"EPHEMERIS_TYPE":0,"CLASSIFICATION_TYPE":"U","NORAD_CAT_ID":44610,"ELEMENT_SET_NO":999,"REV_AT_EPOCH":45422,"BSTAR":0.00057216024,"MEAN_MOTION_DOT":8.702e-5,"MEAN_MOTION_DDOT":0}]
